KAITUO 1B               
1 40912U 15049P   18007.44680880  .00000945  00000-0  49238-4 0  9997
2 40912  97.4508  17.0944 0014458 205.8182 291.5236 15.18353755127274
TIANWANG 1C (TW-1C)     
1 40926U 15051B   18007.55105753  .00005903  00000-0  12042-3 0  9999
2 40926  97.2051  50.7431 0011679 136.8668 359.8389 15.46518483128460
TIANWANG 1B (TW-1B)     
1 40927U 15051C   18007.51112262  .00005636  00000-0  11975-3 0  9996
2 40927  97.2137  50.6222 0011268 147.5814 343.5122 15.45349537128386
TIANWANG 1A (TW-1A)     
1 40928U 15051D   18007.53706942  .00002504  00000-0  69590-4 0  9991
2 40928  97.2044  44.6260 0012090 173.0439 330.5230 15.37741264128087
LAPAN-A2 (IO-86)        
1 40931U 15052B   18007.03110118  .00000657  00000-0  24344-5 0  9991
2 40931   5.9959 219.2804 0013249 251.9506 107.9178 14.76561258123148
LQSAT                   
1 40958U 15057A   18007.44626492  .00000025  00000-0  11630-4 0  9999
2 40958  97.9595  83.9845 0019331 129.2499 231.0431 14.73010697121187
CHUBUSAT-2              
1 41338U 16012B   18007.07006158  .00000294  00000-0  16271-4 0  9998
2 41338  31.0029 257.2371 0014035 277.5265  82.3776 14.99900934103623
CHUBUSAT-3              
1 41339U 16012C   18007.10424098  .00000302  00000-0  16810-4 0  9999
2 41339  31.0089 255.8472 0013809 284.5714  75.3393 15.00093958103619
OUFTI-1                 
1 41458U 16025C   18007.40983679  .00001459  00000-0  80994-4 0  9991
2 41458  98.1600  61.5329 0170506 326.9580  32.1070 15.04132515 93266
E-ST@R-II               
1 41459U 16025D   18007.52326490  .00001255  00000-0  70685-4 0  9997
2 41459  98.1605  61.5514 0171146 327.2983  31.7730 15.03907757 93276
AAUSAT 4                
1 41460U 16025E   18007.37803390  .00000877  00000-0  50535-4 0  9992
2 41460  98.1528  61.6752 0163132 324.7601  34.2899 15.05131698 93293
NUSAT 1 (LO-87)         
1 41557U 16033B   18007.27667556  .00001070  00000-0  41989-4 0  9998
2 41557  97.4488  91.7347 0014159  13.4040 346.7572 15.27893021 89589
BEESAT-4                
1 41619U 16040W   18007.04621005  .00001172  00000-0  54870-4 0  9995
2 41619  97.4377  72.2806 0013356  77.6276 282.6454 15.21639172 73589
PRATHAM                 
1 41783U 16059A   18007.40261593  .00000055  00000-0  20142-4 0  9993
2 41783  98.1413  71.3724 0032560 239.1273 120.6725 14.62892782 68453
ALSAT 1N                
1 41789U 16059G   18007.42647259  .00000101  00000-0  28326-4 0  9992
2 41789  98.1423  72.2971 0027124 231.6627 128.2142 14.64117472 68493
NAYIF-1 (EO-88)         
1 42017U 17008BX  18007.11941474  .00001321  00000-0  57659-4 0  9990
2 42017  97.4705  73.0026 0005557 214.3523 145.7355 15.23920867 49532
LILACSAT-1              
1 42725U 98067ME  18007.52762058  .00011882  00000-0  13629-3 0  9995
2 42725  51.6381  93.0732 0005443 350.6738   9.4154 15.62544353 35344
MAX VALIER SAT          
1 42778U 17036P   18007.21028407  .00000835  00000-0  40784-4 0  9998
2 42778  97.4267  69.4295 0011140 273.5261  86.4700 15.20960947 30037
FOX-1B (AO-91)          
1 43017U 17073E   18006.87912735  .00000591  00000-0  51416-4 0  9996
2 43017  97.6964 304.8674 0262019  76.7540 286.2754 14.77826169  7281
